{
  "type": "FeatureCollection",
  "features": [
    {
      "type": "Feature",
      "properties": {
        "norad_id": 54741,
        "name": "GALAXY 35 (G-35)",
        "group": "intelsat",
        "lat": -0.03972218044023792,
        "lon": -113.367791228627,
        "alt_km": 35775.15107463457,
        "timestamp": "2025-12-03T17:47:50.380319+00:00",
        "meta_object_name": "GALAXY 35 (G-35)",
        "meta_object_id": "2022-170A",
        "meta_epoch": "2025-12-03T08:10:37.782048",
        "meta_mean_motion": 1.00269334,
        "meta_eccentricity": 0.0002843,
        "meta_inclination": 0.0154,
        "meta_ra_of_asc_node": 333.7504,
        "meta_arg_of_pericenter": 287.8383,
        "meta_mean_anomaly": 200.3824,
        "meta_ephemeris_type": 0,
        "meta_classification_type": "U",
        "meta_norad_cat_id": 54741,
        "meta_element_set_no": 999,
        "meta_rev_at_epoch": 1093,
        "meta_bstar": 0,
        "meta_mean_motion_dot": 0,
        "meta_mean_motion_ddot": 0,
        "tle_line1": "1 54741U 22170A   25337.34071507  .00000000  00000+0  00000+0 0  9998",
        "tle_line2": "2 54741   0.0154 333.7504 0002843 287.8383 200.3824  1.00269334 10934"
      },
      "geometry": {
        "type": "Point",
        "coordinates": [
          -113.367791228627,
          -0.03972218044023792
        ]
      }
    },
    {
      "type": "Feature",
      "properties": {
        "norad_id": 54742,
        "name": "GALAXY 36 (G-36)",
        "group": "intelsat",
        "lat": -0.01882559181168194,
        "lon": -109.23545217499698,
        "alt_km": 35783.9455834386,
        "timestamp": "2025-12-03T17:47:50.380330+00:00",
        "meta_object_name": "GALAXY 36 (G-36)",
        "meta_object_id": "2022-170B",
        "meta_epoch": "2025-12-03T09:54:27.836352",
        "meta_mean_motion": 1.0027039,
        "meta_eccentricity": 6.02e-05,
        "meta_inclination": 0.016,
        "meta_ra_of_asc_node": 263.9735,
        "meta_arg_of_pericenter": 345.2234,
        "meta_mean_anomaly": 242.9257,
        "meta_ephemeris_type": 0,
        "meta_classification_type": "U",
        "meta_norad_cat_id": 54742,
        "meta_element_set_no": 999,
        "meta_rev_at_epoch": 1081,
        "meta_bstar": 0,
        "meta_mean_motion_dot": -1.67e-06,
        "meta_mean_motion_ddot": 0,
        "tle_line1": "1 54742U 22170B   25337.41282218 -.00000167  00000+0  00000+0 0  9995",
        "tle_line2": "2 54742   0.0160 263.9735 0000602 345.2234 242.9257  1.00270390 10810"
      },
      "geometry": {
        "type": "Point",
        "coordinates": [
          -109.23545217499698,
          -0.01882559181168194
        ]
      }
    },
    {
      "type": "Feature",
      "properties": {
        "norad_id": 57493,
        "name": "GALAXY 37 (G-37)",
        "group": "intelsat",
        "lat": -0.039604341100910434,
        "lon": -147.2412940798212,
        "alt_km": 35778.409788806974,
        "timestamp": "2025-12-03T17:47:50.380343+00:00",
        "meta_object_name": "GALAXY 37 (G-37)",
        "meta_object_id": "2023-112A",
        "meta_epoch": "2025-12-03T11:17:38.568192",
        "meta_mean_motion": 1.00273018,
        "meta_eccentricity": 0.0002478,
        "meta_inclination": 0.0152,
        "meta_ra_of_asc_node": 301.196,
        "meta_arg_of_pericenter": 317.5121,
        "meta_mean_anomaly": 216.2781,
        "meta_ephemeris_type": 0,
        "meta_classification_type": "U",
        "meta_norad_cat_id": 57493,
        "meta_element_set_no": 999,
        "meta_rev_at_epoch": 858,
        "meta_bstar": 0,
        "meta_mean_motion_dot": 6.6e-07,
        "meta_mean_motion_ddot": 0,
        "tle_line1": "1 57493U 23112A   25337.47058528  .00000066  00000+0  00000+0 0  9996",
        "tle_line2": "2 57493   0.0152 301.1960 0002478 317.5121 216.2781  1.00273018  8589"
      },
      "geometry": {
        "type": "Point",
        "coordinates": [
          -147.2412940798212,
          -0.039604341100910434
        ]
      }
    }
  ]
}